[{"OBJECT_NAME":"STARLINK-30760","OBJECT_ID":"2023-167N","EPOCH":"2026-03-09T12:41:23.312256","MEAN_MOTION":15.26739238,"ECCENTRICITY":0.0001007,"INCLINATION":42.9998,"RA_OF_ASC_NODE":144.0264,"ARG_OF_PERICENTER":208.5156,"MEAN_ANOMALY":151.564,"EPHEMERIS_TYPE":0,"CLASSIFICATION_TYPE":"U","NORAD_CAT_ID":58187,"ELEMENT_SET_NO":999,"REV_AT_EPOCH":13096,"BSTAR":-5.2348e-5,"MEAN_MOTION_DOT":-1.663e-5,"MEAN_MOTION_DDOT":0},{"OBJECT_NAME":"PUCP-SAT 1","OBJECT_ID":"2013-066AC","EPOCH":"2026-03-09T22:02:13.763904","MEAN_MOTION":15.29426022,"ECCENTRICITY":0.00136836,"INCLINATION":97.5787,"RA_OF_ASC_NODE":61.0032,"ARG_OF_PERICENTER":300.1183,"MEAN_ANOMALY":59.87,"EPHEMERIS_TYPE":0,"CLASSIFICATION_TYPE":"U","NORAD_CAT_ID":39442,"ELEMENT_SET_NO":999,"REV_AT_EPOCH":66907,"BSTAR":0.00088755185,"MEAN_MOTION_DOT":0.00025373,"MEAN_MOTION_DDOT":0}]
